{
  "type": "FeatureCollection",
  "features": [
    {
      "type": "Feature",
      "properties": {
        "norad_id": 26766,
        "name": "INTELSAT 10 (IS-10)",
        "group": "intelsat",
        "lat": -2.8863812483966202,
        "lon": 41.685694620077214,
        "alt_km": 36139.728253874324,
        "timestamp": "2025-12-10T11:33:53.058786+00:00",
        "meta_object_name": "INTELSAT 10 (IS-10)",
        "meta_object_id": "2001-019A",
        "meta_epoch": "2025-12-09T15:29:15.575424",
        "meta_mean_motion": 0.99078983,
        "meta_eccentricity": 0.0007832,
        "meta_inclination": 8.6227,
        "meta_ra_of_asc_node": 61.1879,
        "meta_arg_of_pericenter": 222.8476,
        "meta_mean_anomaly": 178.976,
        "meta_ephemeris_type": 0,
        "meta_classification_type": "U",
        "meta_norad_cat_id": 26766,
        "meta_element_set_no": 999,
        "meta_rev_at_epoch": 4370,
        "meta_bstar": 0,
        "meta_mean_motion_dot": -2.84e-06,
        "meta_mean_motion_ddot": 0,
        "tle_line1": "1 26766U 01019A   25343.64531916 -.00000284  00000+0  00000+0 0  9993",
        "tle_line2": "2 26766   8.6227  61.1879 0007832 222.8476 178.9760  0.99078983 43702"
      },
      "geometry": {
        "type": "Point",
        "coordinates": [
          41.685694620077214,
          -2.8863812483966202
        ]
      }
    },
    {
      "type": "Feature",
      "properties": {
        "norad_id": 26900,
        "name": "INTELSAT 902 (IS-902)",
        "group": "intelsat",
        "lat": 4.39641411553599,
        "lon": -157.1730127453969,
        "alt_km": 35774.389608058416,
        "timestamp": "2025-12-10T11:33:53.058811+00:00",
        "meta_object_name": "INTELSAT 902 (IS-902)",
        "meta_object_id": "2001-039A",
        "meta_epoch": "2025-12-01T16:59:59.311968",
        "meta_mean_motion": 1.00270327,
        "meta_eccentricity": 0.00043097,
        "meta_inclination": 5.6187,
        "meta_ra_of_asc_node": 74.2002,
        "meta_arg_of_pericenter": 175.119,
        "meta_mean_anomaly": 26.3816,
        "meta_ephemeris_type": 0,
        "meta_classification_type": "U",
        "meta_norad_cat_id": 26900,
        "meta_element_set_no": 999,
        "meta_rev_at_epoch": 8871,
        "meta_bstar": 0,
        "meta_mean_motion_dot": -2.63e-06,
        "meta_mean_motion_ddot": 0,
        "tle_line1": "1 26900U 01039A   25335.70832537 -.00000263  00000+0  00000+0 0  9993",
        "tle_line2": "2 26900   5.6187  74.2002 0004309 175.1190  26.3816  1.00270327 88713"
      },
      "geometry": {
        "type": "Point",
        "coordinates": [
          -157.1730127453969,
          4.39641411553599
        ]
      }
    },
    {
      "type": "Feature",
      "properties": {
        "norad_id": 27380,
        "name": "INTELSAT 904 (IS-904)",
        "group": "intelsat",
        "lat": 3.211531635291618,
        "lon": -138.43914762390352,
        "alt_km": 35782.71096092534,
        "timestamp": "2025-12-10T11:33:53.058829+00:00",
        "meta_object_name": "INTELSAT 904 (IS-904)",
        "meta_object_id": "2002-007A",
        "meta_epoch": "2025-12-09T11:42:40.881024",
        "meta_mean_motion": 1.00273083,
        "meta_eccentricity": 0.0001514,
        "meta_inclination": 6.4469,
        "meta_ra_of_asc_node": 71.4685,
        "meta_arg_of_pericenter": 215.3872,
        "meta_mean_anomaly": 295.774,
        "meta_ephemeris_type": 0,
        "meta_classification_type": "U",
        "meta_norad_cat_id": 27380,
        "meta_element_set_no": 999,
        "meta_rev_at_epoch": 4986,
        "meta_bstar": 0,
        "meta_mean_motion_dot": -2.24e-06,
        "meta_mean_motion_ddot": 0,
        "tle_line1": "1 27380U 02007A   25343.48797316 -.00000224  00000+0  00000+0 0  9998",
        "tle_line2": "2 27380   6.4469  71.4685 0001514 215.3872 295.7740  1.00273083 49866"
      },
      "geometry": {
        "type": "Point",
        "coordinates": [
          -138.43914762390352,
          3.211531635291618
        ]
      }
    },
    {
      "type": "Feature",
      "properties": {
        "norad_id": 27426,
        "name": "DIRECTV 5 (TEMPO 1)",
        "group": "intelsat",
        "lat": 3.9966416368075386,
        "lon": 142.7205342111377,
        "alt_km": 35797.44643511092,
        "timestamp": "2025-12-10T11:33:53.058843+00:00",
        "meta_object_name": "DIRECTV 5 (TEMPO 1)",
        "meta_object_id": "2002-023A",
        "meta_epoch": "2025-12-10T04:31:38.802720",
        "meta_mean_motion": 1.00272185,
        "meta_eccentricity": 0.0003898,
        "meta_inclination": 4.396,
        "meta_ra_of_asc_node": 77.6814,
        "meta_arg_of_pericenter": 201.9504,
        "meta_mean_anomaly": 117.3336,
        "meta_ephemeris_type": 0,
        "meta_classification_type": "U",
        "meta_norad_cat_id": 27426,
        "meta_element_set_no": 999,
        "meta_rev_at_epoch": 8622,
        "meta_bstar": 0,
        "meta_mean_motion_dot": -5.4e-07,
        "meta_mean_motion_ddot": 0,
        "tle_line1": "1 27426U 02023A   25344.18864355 -.00000054  00000+0  00000+0 0  9994",
        "tle_line2": "2 27426   4.3960  77.6814 0003898 201.9504 117.3336  1.00272185 86225"
      },
      "geometry": {
        "type": "Point",
        "coordinates": [
          142.7205342111377,
          3.9966416368075386
        ]
      }
    },
    {
      "type": "Feature",
      "properties": {
        "norad_id": 27438,
        "name": "INTELSAT 905 (IS-905)",
        "group": "intelsat",
        "lat": 4.344642348086484,
        "lon": 115.53456300655328,
        "alt_km": 35795.627526988465,
        "timestamp": "2025-12-10T11:33:53.058855+00:00",
        "meta_object_name": "INTELSAT 905 (IS-905)",
        "meta_object_id": "2002-027A",
        "meta_epoch": "2025-12-09T11:59:00.274272",
        "meta_mean_motion": 1.00271823,
        "meta_eccentricity": 0.00028473,
        "meta_inclination": 6.2778,
        "meta_ra_of_asc_node": 72.0923,
        "meta_arg_of_pericenter": 191.5585,
        "meta_mean_anomaly": 217.3829,
        "meta_ephemeris_type": 0,
        "meta_classification_type": "U",
        "meta_norad_cat_id": 27438,
        "meta_element_set_no": 999,
        "meta_rev_at_epoch": 4946,
        "meta_bstar": 0,
        "meta_mean_motion_dot": 9.5e-07,
        "meta_mean_motion_ddot": 0,
        "tle_line1": "1 27438U 02027A   25343.49930873  .00000095  00000+0  00000+0 0  9997",
        "tle_line2": "2 27438   6.2778  72.0923 0002847 191.5585 217.3829  1.00271823 49463"
      },
      "geometry": {
        "type": "Point",
        "coordinates": [
          115.53456300655328,
          4.344642348086484
        ]
      }
    },
    {
      "type": "Feature",
      "properties": {
        "norad_id": 27445,
        "name": "GALAXY 3C (G-3C)",
        "group": "intelsat",
        "lat": 3.1854932685443127,
        "lon": 158.0410592754518,
        "alt_km": 35781.46841293176,
        "timestamp": "2025-12-10T11:33:53.058867+00:00",
        "meta_object_name": "GALAXY 3C (G-3C)",
        "meta_object_id": "2002-030A",
        "meta_epoch": "2025-12-10T04:23:38.620032",
        "meta_mean_motion": 1.00271026,
        "meta_eccentricity": 0.0001111,
        "meta_inclination": 3.2582,
        "meta_ra_of_asc_node": 80.529,
        "meta_arg_of_pericenter": 95.9073,
        "meta_mean_anomaly": 233.7736,
        "meta_ephemeris_type": 0,
        "meta_classification_type": "U",
        "meta_norad_cat_id": 27445,
        "meta_element_set_no": 999,
        "meta_rev_at_epoch": 4459,
        "meta_bstar": 0,
        "meta_mean_motion_dot": -1.49e-06,
        "meta_mean_motion_ddot": 0,
        "tle_line1": "1 27445U 02030A   25344.18308588 -.00000149  00000+0  00000+0 0  9999",
        "tle_line2": "2 27445   3.2582  80.5290 0001111  95.9073 233.7736  1.00271026 44597"
      },
      "geometry": {
        "type": "Point",
        "coordinates": [
          158.0410592754518,
          3.1854932685443127
        ]
      }
    },
    {
      "type": "Feature",
      "properties": {
        "norad_id": 27513,
        "name": "INTELSAT 906 (IS-906)",
        "group": "intelsat",
        "lat": -4.703594498175609,
        "lon": -42.98351313996727,
        "alt_km": 35770.71231427199,
        "timestamp": "2025-12-10T11:33:53.058879+00:00",
        "meta_object_name": "INTELSAT 906 (IS-906)",
        "meta_object_id": "2002-041A",
        "meta_epoch": "2025-12-09T20:43:37.286400",
        "meta_mean_motion": 1.00271049,
        "meta_eccentricity": 0.000612,
        "meta_inclination": 5.3215,
        "meta_ra_of_asc_node": 75.2657,
        "meta_arg_of_pericenter": 190.4585,
        "meta_mean_anomaly": 188.1629,
        "meta_ephemeris_type": 0,
        "meta_classification_type": "U",
        "meta_norad_cat_id": 27513,
        "meta_element_set_no": 999,
        "meta_rev_at_epoch": 8513,
        "meta_bstar": 0,
        "meta_mean_motion_dot": 1.5e-07,
        "meta_mean_motion_ddot": 0,
        "tle_line1": "1 27513U 02041A   25343.86362600  .00000015  00000+0  00000+0 0  9997",
        "tle_line2": "2 27513   5.3215  75.2657 0006120 190.4585 188.1629  1.00271049 85135"
      },
      "geometry": {
        "type": "Point",
        "coordinates": [
          -42.98351313996727,
          -4.703594498175609
        ]
      }
    }
  ]
}